{
  "type": "FeatureCollection",
  "features": [
    {
      "type": "Feature",
      "properties": {
        "norad_id": 66659,
        "name": "JACK K",
        "group": "last-30-days",
        "lat": 78.37134638119372,
        "lon": -135.43085043505394,
        "alt_km": 587.5985776700172,
        "timestamp": "2025-12-04T13:51:59.228961+00:00",
        "meta_object_name": "JACK K",
        "meta_object_id": "2025-274K",
        "meta_epoch": "2025-12-04T05:27:35.013312",
        "meta_mean_motion": 14.92732692,
        "meta_eccentricity": 0.00123589,
        "meta_inclination": 97.7386,
        "meta_ra_of_asc_node": 265.5845,
        "meta_arg_of_pericenter": 312.6823,
        "meta_mean_anomaly": 47.3354,
        "meta_ephemeris_type": 0,
        "meta_classification_type": "U",
        "meta_norad_cat_id": 66659,
        "meta_element_set_no": 999,
        "meta_rev_at_epoch": 113,
        "meta_bstar": 0.00068482535,
        "meta_mean_motion_dot": 7.028e-05,
        "meta_mean_motion_ddot": 0,
        "tle_line1": "1 66659U 25274K   25338.22748858  .00007028  00000+0  68483-3 0  9995",
        "tle_line2": "2 66659  97.7386 265.5845 0012358 312.6823  47.3354 14.92732692  1139"
      },
      "geometry": {
        "type": "Point",
        "coordinates": [
          -135.43085043505394,
          78.37134638119372
        ]
      }
    },
    {
      "type": "Feature",
      "properties": {
        "norad_id": 66660,
        "name": "K-HERO",
        "group": "last-30-days",
        "lat": 81.07692793868296,
        "lon": -154.08319029884927,
        "alt_km": 587.7639946799773,
        "timestamp": "2025-12-04T13:51:59.228975+00:00",
        "meta_object_name": "K-HERO",
        "meta_object_id": "2025-274L",
        "meta_epoch": "2025-12-04T07:03:00.666144",
        "meta_mean_motion": 14.92883607,
        "meta_eccentricity": 0.00130193,
        "meta_inclination": 97.7391,
        "meta_ra_of_asc_node": 265.6518,
        "meta_arg_of_pericenter": 312.8805,
        "meta_mean_anomaly": 47.132,
        "meta_ephemeris_type": 0,
        "meta_classification_type": "U",
        "meta_norad_cat_id": 66660,
        "meta_element_set_no": 999,
        "meta_rev_at_epoch": 114,
        "meta_bstar": 0.00066102276,
        "meta_mean_motion_dot": 6.808e-05,
        "meta_mean_motion_ddot": 0,
        "tle_line1": "1 66660U 25274L   25338.29375771  .00006808  00000+0  66102-3 0  9995",
        "tle_line2": "2 66660  97.7391 265.6518 0013019 312.8805  47.1320 14.92883607  1147"
      },
      "geometry": {
        "type": "Point",
        "coordinates": [
          -154.08319029884927,
          81.07692793868296
        ]
      }
    },
    {
      "type": "Feature",
      "properties": {
        "norad_id": 66661,
        "name": "SNUGLITE-III",
        "group": "last-30-days",
        "lat": 82.25596173010842,
        "lon": 176.5410252205294,
        "alt_km": 588.0617554894625,
        "timestamp": "2025-12-04T13:51:59.228989+00:00",
        "meta_object_name": "SNUGLITE-III",
        "meta_object_id": "2025-274M",
        "meta_epoch": "2025-12-03T18:09:48.994848",
        "meta_mean_motion": 14.93022901,
        "meta_eccentricity": 0.00137618,
        "meta_inclination": 97.7384,
        "meta_ra_of_asc_node": 265.1254,
        "meta_arg_of_pericenter": 315.3921,
        "meta_mean_anomaly": 44.619,
        "meta_ephemeris_type": 0,
        "meta_classification_type": "U",
        "meta_norad_cat_id": 66661,
        "meta_element_set_no": 999,
        "meta_rev_at_epoch": 106,
        "meta_bstar": 0.00042363869,
        "meta_mean_motion_dot": 4.358e-05,
        "meta_mean_motion_ddot": 0,
        "tle_line1": "1 66661U 25274M   25337.75681707  .00004358  00000+0  42364-3 0  9997",
        "tle_line2": "2 66661  97.7384 265.1254 0013761 315.3921  44.6190 14.93022901  1064"
      },
      "geometry": {
        "type": "Point",
        "coordinates": [
          176.5410252205294,
          82.25596173010842
        ]
      }
    },
    {
      "type": "Feature",
      "properties": {
        "norad_id": 66662,
        "name": "2025-274N",
        "group": "last-30-days",
        "lat": 82.04584391411514,
        "lon": 162.64830346880092,
        "alt_km": 588.3479223014174,
        "timestamp": "2025-12-04T13:51:59.228999+00:00",
        "meta_object_name": "2025-274N",
        "meta_object_id": "2025-274N",
        "meta_epoch": "2025-12-04T07:01:23.193120",
        "meta_mean_motion": 14.93089117,
        "meta_eccentricity": 0.00141018,
        "meta_inclination": 97.7387,
        "meta_ra_of_asc_node": 265.653,
        "meta_arg_of_pericenter": 312.9035,
        "meta_mean_anomaly": 47.1,
        "meta_ephemeris_type": 0,
        "meta_classification_type": "U",
        "meta_norad_cat_id": 66662,
        "meta_element_set_no": 999,
        "meta_rev_at_epoch": 114,
        "meta_bstar": 0.00038821974,
        "meta_mean_motion_dot": 3.995e-05,
        "meta_mean_motion_ddot": 0,
        "tle_line1": "1 66662U 25274N   25338.29262955  .00003995  00000+0  38822-3 0  9998",
        "tle_line2": "2 66662  97.7387 265.6530 0014101 312.9035  47.1000 14.93089117  1147"
      },
      "geometry": {
        "type": "Point",
        "coordinates": [
          162.64830346880092,
          82.04584391411514
        ]
      }
    },
    {
      "type": "Feature",
      "properties": {
        "norad_id": 66663,
        "name": "KSLV-II R/B",
        "group": "last-30-days",
        "lat": -32.58998352985151,
        "lon": 81.01019489233602,
        "alt_km": 603.6628953143472,
        "timestamp": "2025-12-04T13:51:59.229009+00:00",
        "meta_object_name": "KSLV-II R/B",
        "meta_object_id": "2025-274P",
        "meta_epoch": "2025-12-03T17:40:07.524480",
        "meta_mean_motion": 14.9720213,
        "meta_eccentricity": 0.00461454,
        "meta_inclination": 97.7399,
        "meta_ra_of_asc_node": 265.1649,
        "meta_arg_of_pericenter": 348.9678,
        "meta_mean_anomaly": 11.0527,
        "meta_ephemeris_type": 0,
        "meta_classification_type": "U",
        "meta_norad_cat_id": 66663,
        "meta_element_set_no": 999,
        "meta_rev_at_epoch": 106,
        "meta_bstar": -0.00011329547,
        "meta_mean_motion_dot": -1.401e-05,
        "meta_mean_motion_ddot": 0,
        "tle_line1": "1 66663U 25274P   25337.73619820 -.00001401  00000+0 -11330-3 0  9991",
        "tle_line2": "2 66663  97.7399 265.1649 0046145 348.9678  11.0527 14.97202130  1063"
      },
      "geometry": {
        "type": "Point",
        "coordinates": [
          81.01019489233602,
          -32.58998352985151
        ]
      }
    },
    {
      "type": "Feature",
      "properties": {
        "norad_id": 66664,
        "name": "SOYUZ-MS 28",
        "group": "last-30-days",
        "lat": -9.380433836464265,
        "lon": 10.407809676650206,
        "alt_km": 418.19866349757285,
        "timestamp": "2025-12-04T13:51:59.229019+00:00",
        "meta_object_name": "SOYUZ-MS 28",
        "meta_object_id": "2025-275A",
        "meta_epoch": "2025-12-04T02:12:18.455328",
        "meta_mean_motion": 15.49293095,
        "meta_eccentricity": 0.00036281,
        "meta_inclination": 51.6302,
        "meta_ra_of_asc_node": 185.2932,
        "meta_arg_of_pericenter": 200.9086,
        "meta_mean_anomaly": 159.1754,
        "meta_ephemeris_type": 0,
        "meta_classification_type": "U",
        "meta_norad_cat_id": 66664,
        "meta_element_set_no": 999,
        "meta_rev_at_epoch": 110,
        "meta_bstar": 0.00029177423,
        "meta_mean_motion_dot": 0.00015824,
        "meta_mean_motion_ddot": 0,
        "tle_line1": "1 66664U 25275A   25338.09188027  .00015824  00000+0  29177-3 0  9993",
        "tle_line2": "2 66664  51.6302 185.2932 0003628 200.9086 159.1754 15.49293095  1102"
      },
      "geometry": {
        "type": "Point",
        "coordinates": [
          10.407809676650206,
          -9.380433836464265
        ]
      }
    },
    {
      "type": "Feature",
      "properties": {
        "norad_id": 66820,
        "name": "KOMPSAT-7",
        "group": "last-30-days",
        "lat": -79.02605632616446,
        "lon": 60.818359274497105,
        "alt_km": 572.9308551679824,
        "timestamp": "2025-12-04T13:51:59.229032+00:00",
        "meta_object_name": "KOMPSAT-7",
        "meta_object_id": "2025-279A",
        "meta_epoch": "2025-12-01T20:35:16.060992",
        "meta_mean_motion": 14.98310631,
        "meta_eccentricity": 0.00097501,
        "meta_inclination": 97.6394,
        "meta_ra_of_asc_node": 281.9587,
        "meta_arg_of_pericenter": 255.3935,
        "meta_mean_anomaly": 104.6207,
        "meta_ephemeris_type": 0,
        "meta_classification_type": "U",
        "meta_norad_cat_id": 66820,
        "meta_element_set_no": 999,
        "meta_rev_at_epoch": 2,
        "meta_bstar": 8.4407298e-05,
        "meta_mean_motion_dot": 9.47e-06,
        "meta_mean_motion_ddot": 0,
        "tle_line1": "1 66820U 25279A   25335.85782478  .00000947  00000+0  84407-4 0  9990",
        "tle_line2": "2 66820  97.6394 281.9587 0009750 255.3935 104.6207 14.98310631    23"
      },
      "geometry": {
        "type": "Point",
        "coordinates": [
          60.818359274497105,
          -79.02605632616446
        ]
      }
    }
  ]
}